[{"OBJECT_NAME":"STARLINK-35297","OBJECT_ID":"2025-232F","EPOCH":"2026-03-09T08:52:58.058688","MEAN_MOTION":15.3019855,"ECCENTRICITY":0.00012448,"INCLINATION":53.1589,"RA_OF_ASC_NODE":105.6027,"ARG_OF_PERICENTER":98.7636,"MEAN_ANOMALY":261.3506,"EPHEMERIS_TYPE":0,"CLASSIFICATION_TYPE":"U","NORAD_CAT_ID":66010,"ELEMENT_SET_NO":999,"REV_AT_EPOCH":2337,"BSTAR":0.00041178012,"MEAN_MOTION_DOT":0.00011856,"MEAN_MOTION_DDOT":0},{"OBJECT_NAME":"OBJECT BE","OBJECT_ID":"2025-313BE","EPOCH":"2026-03-09T16:43:59.380320","MEAN_MOTION":15.29801687,"ECCENTRICITY":0.00072083,"INCLINATION":97.3989,"RA_OF_ASC_NODE":145.3568,"ARG_OF_PERICENTER":335.3714,"MEAN_ANOMALY":24.7181,"EPHEMERIS_TYPE":0,"CLASSIFICATION_TYPE":"U","NORAD_CAT_ID":67482,"ELEMENT_SET_NO":999,"REV_AT_EPOCH":797,"BSTAR":0.0026504328,"MEAN_MOTION_DOT":0.00077178,"MEAN_MOTION_DDOT":0}]
